{"type": "FeatureCollection", "features": [{"type": "Feature", "geometry": {"type": "MultiPolygon", "coordinates": [[[[112.2415, 15.694], [112.2525, 15.6958], [112.2709, 15.7078], [112.2782, 15.7225], [112.2773, 15.7344], [112.27, 15.7399], [112.2608, 15.739], [112.2452, 15.7335], [112.2259, 15.7151], [112.2241, 15.7004], [112.2314, 15.6931], [112.2415, 15.694]]], [[[111.2159, 15.7824], [111.2101, 15.7831], [111.2025, 15.7811], [111.1894, 15.7831], [111.1853, 15.7817], [111.1853, 15.7762], [111.188, 15.7687], [111.1983, 15.7667], [111.2073, 15.768], [111.2114, 15.7666], [111.2152, 15.7683], [111.2163, 15.7714], [111.22, 15.7749], [111.2207, 15.7797], [111.2159, 15.7824]]], [[[111.2231, 15.7907], [111.2242, 15.7948], [111.2214, 15.7993], [111.218, 15.8021], [111.2118, 15.8021], [111.2077, 15.8003], [111.2052, 15.7976], [111.2055, 15.7926], [111.2087, 15.7903], [111.2173, 15.7897], [111.2231, 15.7907]]], [[[112.4453, 16.0295], [112.4386, 16.0367], [112.4388, 16.0405], [112.4368, 16.0444], [112.4347, 16.0446], [112.4343, 16.0425], [112.4353, 16.0367], [112.4374, 16.032], [112.4421, 16.027], [112.4454, 16.026], [112.4453, 16.0295]]], [[[111.8178, 16.0358], [111.8483, 16.0409], [111.8517, 16.0579], [111.8466, 16.0731], [111.7974, 16.0782], [111.772, 16.0714], [111.7669, 16.0528], [111.7652, 16.0325], [111.7822, 16.0308], [111.8178, 16.0358]]], [[[112.54, 16.0019], [112.6011, 16.012], [112.6333, 16.0341], [112.6367, 16.0544], [112.6214, 16.068], [112.6078, 16.0697], [112.5773, 16.0646], [112.4942, 16.046], [112.479, 16.0375], [112.4671, 16.0239], [112.4688, 16.0087], [112.4892, 16.0002], [112.54, 16.0019]]], [[[111.5643, 16.1878], [111.5724, 16.2057], [111.5974, 16.2209], [111.6313, 16.245], [111.6346, 16.2461], [111.6331, 16.253], [111.6295, 16.2602], [111.6215, 16.2628], [111.6127, 16.2628], [111.6081, 16.2603], [111.6029, 16.2545], [111.5946, 16.2535], [111.5914, 16.2457], [111.5873, 16.2389], [111.5758, 16.2373], [111.5716, 16.2284], [111.568, 16.2232], [111.5575, 16.2149], [111.5518, 16.2081], [111.544, 16.2024], [111.5377, 16.1951], [111.5372, 16.1893], [111.5395, 16.1833], [111.5408, 16.1716], [111.5518, 16.1653], [111.581, 16.1627], [111.5899, 16.1643], [111.5925, 16.1591], [111.604, 16.1601], [111.6128, 16.1617], [111.6212, 16.1596], [111.629, 16.1648], [111.6441, 16.1721], [111.6613, 16.1789], [111.6697, 16.1836], [111.6801, 16.182], [111.6911, 16.1862], [111.7041, 16.1841], [111.7124, 16.1817], [111.718, 16.1932], [111.7175, 16.2003], [111.6787, 16.2057], [111.6519, 16.1985], [111.6063, 16.1798], [111.5768, 16.1789], [111.5643, 16.1878]]], [[[111.6989, 16.2863], [111.6828, 16.2864], [111.6715, 16.284], [111.6706, 16.2735], [111.6742, 16.261], [111.6755, 16.259], [111.7072, 16.2628], [111.7278, 16.2575], [111.7662, 16.2521], [111.7876, 16.2458], [111.7992, 16.236], [111.7966, 16.2217], [111.7832, 16.2128], [111.7599, 16.2012], [111.7412, 16.1949], [111.7384, 16.1956], [111.7367, 16.1914], [111.7394, 16.1869], [111.7445, 16.182], [111.7568, 16.1841], [111.7657, 16.1872], [111.772, 16.1883], [111.7767, 16.1856], [111.785, 16.1893], [111.796, 16.1961], [111.8054, 16.1961], [111.8095, 16.2018], [111.8168, 16.2081], [111.8231, 16.2185], [111.8247, 16.2227], [111.8221, 16.2305], [111.8226, 16.2441], [111.8168, 16.2509], [111.8059, 16.2582], [111.8007, 16.2597], [111.7855, 16.2769], [111.7735, 16.2801], [111.7527, 16.2816], [111.7261, 16.2811], [111.7125, 16.2796], [111.6989, 16.2863]]], [[[112.4163, 16.2877], [112.4152, 16.2895], [112.4132, 16.29], [112.4125, 16.2862], [112.4096, 16.2848], [112.388, 16.2803], [112.3841, 16.2788], [112.3842, 16.2777], [112.3874, 16.2758], [112.3898, 16.2724], [112.3914, 16.2718], [112.3931, 16.2722], [112.4, 16.2777], [112.4023, 16.2779], [112.407, 16.2764], [112.4093, 16.2767], [112.4134, 16.2801], [112.4159, 16.2831], [112.4233, 16.2865], [112.422, 16.2882], [112.4163, 16.2877]]], [[[112.3763, 16.2919], [112.3791, 16.2933], [112.3792, 16.2947], [112.3765, 16.2974], [112.3703, 16.3002], [112.3676, 16.3002], [112.3647, 16.2988], [112.3618, 16.2916], [112.3602, 16.2909], [112.3576, 16.2941], [112.3561, 16.2945], [112.3517, 16.2936], [112.3504, 16.2924], [112.347, 16.2865], [112.3457, 16.2865], [112.3428, 16.2887], [112.3401, 16.2886], [112.3325, 16.2864], [112.332, 16.2845], [112.3333, 16.2803], [112.3362, 16.2755], [112.3375, 16.2745], [112.3411, 16.2756], [112.3444, 16.2785], [112.3499, 16.2802], [112.354, 16.2805], [112.3571, 16.2818], [112.3609, 16.2855], [112.3763, 16.2919]]], [[[112.5239, 16.2951], [112.5235, 16.3055], [112.5229, 16.3072], [112.5216, 16.3076], [112.5178, 16.3068], [112.515, 16.3045], [112.5014, 16.3002], [112.4976, 16.2968], [112.494, 16.2953], [112.486, 16.2932], [112.4798, 16.29], [112.4792, 16.2871], [112.4831, 16.2783], [112.4879, 16.2763], [112.4938, 16.2758], [112.4983, 16.2777], [112.5004, 16.2803], [112.5044, 16.2835], [112.5082, 16.2811], [112.5123, 16.2803], [112.515, 16.282], [112.5165, 16.2841], [112.5159, 16.2913], [112.518, 16.2928], [112.5212, 16.2905], [112.5226, 16.2919], [112.5239, 16.2951]]], [[[112.0193, 16.3696], [112.0157, 16.3714], [112.0126, 16.3741], [112.008, 16.3743], [112.0018, 16.3716], [112.0005, 16.3688], [111.9982, 16.3668], [111.9958, 16.3681], [111.9927, 16.3712], [111.9903, 16.3712], [111.9865, 16.3696], [111.9788, 16.3606], [111.9719, 16.359], [111.9668, 16.357], [111.9649, 16.3554], [111.9636, 16.3515], [111.963, 16.3458], [111.959, 16.3339], [111.9591, 16.3275], [111.9613, 16.3247], [111.9666, 16.3225], [111.9703, 16.3225], [111.9741, 16.3242], [111.9765, 16.3265], [111.9779, 16.3296], [111.9805, 16.33], [111.9858, 16.3249], [111.9892, 16.3253], [111.9923, 16.3278], [111.9951, 16.3287], [112.0005, 16.324], [112.0036, 16.3245], [112.0069, 16.3269], [112.0111, 16.3282], [112.014, 16.3273], [112.0153, 16.3249], [112.0184, 16.3231], [112.0226, 16.3236], [112.0255, 16.3267], [112.0288, 16.3318], [112.0312, 16.3322], [112.0332, 16.3311], [112.0352, 16.3249], [112.0394, 16.3236], [112.0432, 16.3242], [112.0501, 16.3284], [112.0532, 16.3256], [112.056, 16.3242], [112.062, 16.3245], [112.0671, 16.3276], [112.0846, 16.3439], [112.0848, 16.3468], [112.08, 16.351], [112.0766, 16.3519], [112.074, 16.3535], [112.0722, 16.3603], [112.07, 16.3621], [112.066, 16.3632], [112.0618, 16.3623], [112.0587, 16.3641], [112.0572, 16.3676], [112.0552, 16.3701], [112.051, 16.3701], [112.047, 16.3692], [112.0439, 16.3663], [112.0408, 16.3672], [112.0357, 16.371], [112.0306, 16.3736], [112.0275, 16.3736], [112.0248, 16.3721], [112.0222, 16.3692], [112.0193, 16.3696]]], [[[112.5039, 16.341], [112.5074, 16.3459], [112.5162, 16.3477], [112.5176, 16.3495], [112.5181, 16.3532], [112.518, 16.359], [112.5154, 16.359], [112.5133, 16.3581], [112.5094, 16.3577], [112.5034, 16.3527], [112.4872, 16.3466], [112.4868, 16.345], [112.4957, 16.3404], [112.5011, 16.3399], [112.5039, 16.341]]], [[[112.5116, 16.3768], [112.5101, 16.3789], [112.5007, 16.3793], [112.4983, 16.3788], [112.4957, 16.3753], [112.494, 16.374], [112.489, 16.3746], [112.4862, 16.374], [112.4821, 16.3704], [112.4808, 16.3679], [112.4795, 16.3609], [112.4799, 16.3598], [112.4813, 16.3595], [112.4876, 16.3615], [112.4972, 16.3626], [112.5046, 16.3658], [112.5142, 16.3685], [112.5142, 16.3704], [112.5116, 16.3768]]], [[[112.6662, 16.376], [112.6666, 16.3806], [112.6658, 16.3921], [112.664, 16.3941], [112.6596, 16.3943], [112.6572, 16.3933], [112.6578, 16.3903], [112.6606, 16.3844], [112.6632, 16.377], [112.6646, 16.3752], [112.6662, 16.376]]], [[[111.5285, 16.4348], [111.5102, 16.4389], [111.5038, 16.4412], [111.501, 16.4408], [111.5017, 16.4349], [111.5028, 16.4336], [111.506, 16.4316], [111.5164, 16.4302], [111.5183, 16.4258], [111.5212, 16.4253], [111.5261, 16.4256], [111.5292, 16.4277], [111.5306, 16.4281], [111.5318, 16.4263], [111.5335, 16.425], [111.5379, 16.4232], [111.5413, 16.4242], [111.5442, 16.429], [111.5285, 16.4348]]], [[[112.6413, 16.3599], [112.6505, 16.3649], [112.654, 16.4025], [112.6528, 16.4049], [112.6383, 16.4063], [112.6343, 16.4059], [112.6307, 16.4041], [112.6294, 16.3997], [112.6298, 16.3959], [112.627, 16.3897], [112.6278, 16.387], [112.6278, 16.382], [112.6343, 16.3712], [112.6331, 16.3657], [112.6345, 16.3629], [112.6387, 16.3591], [112.6413, 16.3599]]], [[[111.5149, 16.4567], [111.513, 16.4585], [111.5059, 16.4588], [111.5026, 16.4569], [111.5008, 16.4534], [111.5023, 16.452], [111.5146, 16.4502], [111.5256, 16.4476], [111.5322, 16.4446], [111.5408, 16.4433], [111.545, 16.4433], [111.5465, 16.4447], [111.5449, 16.4509], [111.5426, 16.4536], [111.5398, 16.4552], [111.5364, 16.4547], [111.5327, 16.4526], [111.5287, 16.4559], [111.5253, 16.4565], [111.5214, 16.4562], [111.5198, 16.4547], [111.5167, 16.4543], [111.5149, 16.4567]]], [[[111.6112, 16.4486], [111.6044, 16.4525], [111.5863, 16.4656], [111.5814, 16.4674], [111.5777, 16.4712], [111.5759, 16.474], [111.5722, 16.4759], [111.5708, 16.4759], [111.5701, 16.4753], [111.5704, 16.4649], [111.5719, 16.4599], [111.5743, 16.4564], [111.5796, 16.4551], [111.5809, 16.4538], [111.5819, 16.4489], [111.5845, 16.4467], [111.5876, 16.4458], [111.5978, 16.4476], [111.6018, 16.4471], [111.6041, 16.4462], [111.6059, 16.4429], [111.6097, 16.4402], [111.6156, 16.4382], [111.6182, 16.4387], [111.6196, 16.4399], [111.6199, 16.4415], [111.6169, 16.4433], [111.6112, 16.4486]]], [[[112.5605, 16.4361], [112.5617, 16.4434], [112.5611, 16.446], [112.5587, 16.4464], [112.557, 16.4444], [112.5506, 16.4432], [112.5428, 16.4373], [112.5325, 16.4333], [112.5295, 16.4305], [112.5243, 16.4279], [112.5196, 16.4269], [112.5162, 16.4241], [112.5156, 16.422], [112.52, 16.4168], [112.5281, 16.4134], [112.5325, 16.4136], [112.5377, 16.4216], [112.5393, 16.4228], [112.5399, 16.4228], [112.5412, 16.4206], [112.5452, 16.4204], [112.5494, 16.423], [112.551, 16.4259], [112.5528, 16.4313], [112.5528, 16.4341], [112.554, 16.4343], [112.5562, 16.4319], [112.5588, 16.4325], [112.5605, 16.4361]]], [[[111.6186, 16.4585], [111.6201, 16.4594], [111.6206, 16.4688], [111.6186, 16.475], [111.613, 16.4767], [111.6099, 16.4853], [111.6065, 16.4876], [111.6034, 16.4882], [111.5971, 16.4861], [111.5965, 16.485], [111.5968, 16.4826], [111.6128, 16.4653], [111.617, 16.4585], [111.6186, 16.4585]]], [[[112.6616, 16.4343], [112.6652, 16.4431], [112.6646, 16.4476], [112.663, 16.4526], [112.659, 16.4544], [112.6532, 16.4546], [112.647, 16.4513], [112.6471, 16.4482], [112.6512, 16.4448], [112.6532, 16.4415], [112.6536, 16.4381], [112.6598, 16.4343], [112.6616, 16.4343]]], [[[111.5942, 16.491], [111.5958, 16.4916], [111.5966, 16.4934], [111.5953, 16.4952], [111.5908, 16.4957], [111.5887, 16.4947], [111.5884, 16.4931], [111.5894, 16.4918], [111.5916, 16.4908], [111.5942, 16.491]]], [[[112.5192, 16.4902], [112.518, 16.4924], [112.5154, 16.4944], [112.51, 16.5053], [112.5072, 16.5055], [112.5048, 16.5005], [112.5038, 16.4965], [112.5056, 16.493], [112.51, 16.4916], [112.5154, 16.4888], [112.5182, 16.4882], [112.5192, 16.4902]]], [[[112.5755, 16.4761], [112.579, 16.4771], [112.5806, 16.4804], [112.5828, 16.4828], [112.5916, 16.4876], [112.594, 16.4966], [112.5918, 16.5011], [112.5894, 16.5023], [112.5858, 16.5031], [112.5826, 16.5021], [112.5762, 16.4969], [112.5703, 16.4936], [112.5659, 16.4902], [112.5633, 16.4868], [112.5653, 16.4838], [112.5655, 16.4808], [112.5665, 16.4779], [112.5703, 16.4753], [112.5755, 16.4761]]], [[[112.5408, 16.4999], [112.5428, 16.5101], [112.5412, 16.5117], [112.5383, 16.5127], [112.5367, 16.5146], [112.5371, 16.5222], [112.5353, 16.5242], [112.5303, 16.5264], [112.5243, 16.5268], [112.5194, 16.5248], [112.5176, 16.523], [112.5176, 16.5212], [112.5255, 16.5123], [112.5293, 16.5061], [112.5323, 16.4997], [112.5349, 16.4975], [112.5367, 16.4969], [112.5408, 16.4999]]], [[[111.7483, 16.5506], [111.7427, 16.5556], [111.7358, 16.5561], [111.7308, 16.5532], [111.7308, 16.546], [111.74, 16.5239], [111.7404, 16.5165], [111.7515, 16.4921], [111.7515, 16.4843], [111.7492, 16.4778], [111.7395, 16.4654], [111.7275, 16.452], [111.7229, 16.4456], [111.7248, 16.4382], [111.7317, 16.4387], [111.7386, 16.4423], [111.7441, 16.4525], [111.7501, 16.4534], [111.7556, 16.4589], [111.7575, 16.464], [111.7611, 16.4677], [111.7648, 16.4755], [111.763, 16.4806], [111.7667, 16.4856], [111.7699, 16.4958], [111.7708, 16.5119], [111.7764, 16.5206], [111.7782, 16.5262], [111.7745, 16.5298], [111.7727, 16.5423], [111.7662, 16.5473], [111.7556, 16.5473], [111.7483, 16.5506]]], [[[111.6679, 16.5688], [111.6691, 16.5833], [111.6686, 16.5858], [111.6634, 16.5875], [111.6599, 16.587], [111.6549, 16.585], [111.6499, 16.5765], [111.6411, 16.5708], [111.6406, 16.5678], [111.6419, 16.5643], [111.6454, 16.5618], [111.6489, 16.5618], [111.6531, 16.5541], [111.6559, 16.5536], [111.6606, 16.5548], [111.6642, 16.5573], [111.6679, 16.5688]]], [[[111.7021, 16.5593], [111.7058, 16.5601], [111.709, 16.5621], [111.7108, 16.5656], [111.7113, 16.5688], [111.7088, 16.5758], [111.7113, 16.581], [111.7108, 16.5848], [111.7073, 16.588], [111.7028, 16.5898], [111.7001, 16.5893], [111.6971, 16.5626], [111.6975, 16.5587], [111.7021, 16.5593]]], [[[112.7124, 16.5598], [112.713, 16.5624], [112.7113, 16.5687], [112.7137, 16.5791], [112.7107, 16.5911], [112.7117, 16.6046], [112.7102, 16.6118], [112.7087, 16.6148], [112.7041, 16.615], [112.6991, 16.6135], [112.6948, 16.6113], [112.6928, 16.6059], [112.693, 16.6024], [112.6987, 16.5957], [112.6987, 16.5946], [112.6941, 16.59], [112.6939, 16.5863], [112.6956, 16.5833], [112.7015, 16.5811], [112.7009, 16.5789], [112.6972, 16.5778], [112.6952, 16.5739], [112.6985, 16.5626], [112.7013, 16.5602], [112.71, 16.5585], [112.7124, 16.5598]]], [[[112.7085, 16.6425], [112.7024, 16.644], [112.6943, 16.6501], [112.6878, 16.6527], [112.6828, 16.6555], [112.68, 16.6566], [112.6789, 16.6555], [112.678, 16.6486], [112.6789, 16.6453], [112.6869, 16.6418], [112.6917, 16.6422], [112.695, 16.6416], [112.6978, 16.6379], [112.7007, 16.6357], [112.7046, 16.6346], [112.7081, 16.6348], [112.7098, 16.6335], [112.7131, 16.6294], [112.7174, 16.6266], [112.7248, 16.6274], [112.7272, 16.6296], [112.7268, 16.6316], [112.7181, 16.6372], [112.7085, 16.6425]]], [[[112.7148, 16.6574], [112.7163, 16.666], [112.7148, 16.6746], [112.7088, 16.679], [112.694, 16.6747], [112.697, 16.6647], [112.7059, 16.656], [112.7148, 16.6574]]], [[[112.7209, 16.6825], [112.7198, 16.6853], [112.7172, 16.6879], [112.7102, 16.6886], [112.7083, 16.6908], [112.7059, 16.6955], [112.7041, 16.6975], [112.6976, 16.6986], [112.6933, 16.6982], [112.6883, 16.6964], [112.6863, 16.6947], [112.6891, 16.6921], [112.6928, 16.6912], [112.6996, 16.6881], [112.7009, 16.6855], [112.7072, 16.6825], [112.7135, 16.6803], [112.7344, 16.6679], [112.7361, 16.6686], [112.7335, 16.6762], [112.7296, 16.6805], [112.7231, 16.6812], [112.7209, 16.6825]]], [[[112.2268, 16.7378], [112.2276, 16.7397], [112.208, 16.7603], [112.2047, 16.7627], [112.2008, 16.7588], [112.1996, 16.7551], [112.1996, 16.7506], [112.2006, 16.7483], [112.2047, 16.7469], [112.2123, 16.7461], [112.2136, 16.7403], [112.2154, 16.7378], [112.2183, 16.737], [112.2268, 16.7378]]], [[[112.2701, 16.7506], [112.2782, 16.7541], [112.2819, 16.7602], [112.2838, 16.7675], [112.2811, 16.7765], [112.2448, 16.7942], [112.2343, 16.7945], [112.229, 16.7923], [112.2234, 16.7848], [112.2231, 16.7795], [112.2239, 16.7739], [112.2285, 16.7693], [112.2477, 16.7565], [112.2613, 16.7501], [112.2701, 16.7506]]], [[[112.3049, 16.812], [112.3113, 16.8196], [112.32, 16.8401], [112.3256, 16.8447], [112.3291, 16.849], [112.3313, 16.853], [112.3297, 16.8646], [112.3194, 16.8711], [112.3105, 16.8684], [112.2908, 16.8436], [112.2922, 16.8409], [112.2917, 16.8382], [112.2949, 16.8312], [112.2922, 16.8274], [112.2938, 16.8169], [112.297, 16.8129], [112.3019, 16.8115], [112.3049, 16.812]]], [[[112.3645, 16.8263], [112.3702, 16.8345], [112.3704, 16.8384], [112.3695, 16.8411], [112.3654, 16.8436], [112.3634, 16.8477], [112.3624, 16.8553], [112.3602, 16.8592], [112.3572, 16.8612], [112.3565, 16.8644], [112.3572, 16.8692], [112.3556, 16.874], [112.3519, 16.8795], [112.3501, 16.88], [112.3494, 16.8718], [112.3506, 16.8686], [112.3506, 16.8656], [112.3492, 16.861], [112.3506, 16.8562], [112.3542, 16.8521], [112.3549, 16.8475], [112.3547, 16.8439], [112.3588, 16.8377], [112.3588, 16.8331], [112.3579, 16.8285], [112.3604, 16.8244], [112.3645, 16.8263]]], [[[112.2264, 16.8892], [112.2224, 16.8929], [112.2129, 16.8992], [112.2054, 16.9018], [112.1884, 16.9126], [112.1849, 16.9113], [112.1819, 16.9037], [112.1814, 16.8994], [112.1857, 16.8951], [112.1916, 16.8927], [112.194, 16.8911], [112.1959, 16.8838], [112.1975, 16.8819], [112.2019, 16.8822], [112.21, 16.8846], [112.2126, 16.883], [112.2191, 16.8765], [112.224, 16.8752], [112.2288, 16.8751], [112.2337, 16.8762], [112.2372, 16.8811], [112.2264, 16.8892]]], [[[112.3216, 16.9021], [112.3248, 16.9024], [112.3243, 16.9051], [112.3049, 16.921], [112.2987, 16.9256], [112.2973, 16.925], [112.2971, 16.9226], [112.298, 16.914], [112.3019, 16.9094], [112.306, 16.9078], [112.3084, 16.9075], [112.3092, 16.9021], [112.3138, 16.9016], [112.3216, 16.9021]]], [[[112.2393, 16.928], [112.2391, 16.9307], [112.2091, 16.9388], [112.207, 16.9388], [112.2067, 16.9358], [112.2086, 16.9304], [112.2183, 16.9272], [112.2375, 16.9256], [112.2393, 16.928]]], [[[112.3359, 16.9118], [112.3378, 16.9199], [112.3356, 16.9221], [112.3353, 16.9256], [112.337, 16.9347], [112.3367, 16.9388], [112.3318, 16.9407], [112.3273, 16.9404], [112.3232, 16.939], [112.3202, 16.9374], [112.3224, 16.9312], [112.3259, 16.9242], [112.3259, 16.9156], [112.3322, 16.9082], [112.3359, 16.9118]]], [[[112.2847, 16.9361], [112.2852, 16.9388], [112.2817, 16.956], [112.2793, 16.956], [112.2771, 16.9547], [112.2712, 16.9461], [112.2712, 16.9427], [112.2744, 16.9372], [112.2782, 16.9347], [112.282, 16.9337], [112.2847, 16.9361]]], [[[112.2327, 16.9978], [112.229, 16.9985], [112.2161, 16.9962], [112.2087, 16.9977], [112.2056, 16.9972], [112.2003, 16.9935], [112.1903, 16.9904], [112.1866, 16.9841], [112.1845, 16.9778], [112.1793, 16.9757], [112.1746, 16.9709], [112.1746, 16.9646], [112.183, 16.9573], [112.1964, 16.9531], [112.2198, 16.9497], [112.225, 16.9544], [112.229, 16.9567], [112.2341, 16.9552], [112.2415, 16.9552], [112.243, 16.9589], [112.2481, 16.9592], [112.2554, 16.9611], [112.2591, 16.9662], [112.2661, 16.9662], [112.2723, 16.9691], [112.2716, 16.9732], [112.265, 16.975], [112.2591, 16.9776], [112.2598, 16.9816], [112.2632, 16.9864], [112.2665, 16.9886], [112.2661, 16.9919], [112.2613, 16.9952], [112.247, 16.9963], [112.2411, 16.993], [112.2371, 16.993], [112.2327, 16.9978]]], [[[111.5396, 17.0866], [111.5401, 17.0936], [111.5394, 17.0946], [111.5379, 17.0948], [111.5141, 17.0828], [111.5139, 17.0818], [111.5223, 17.0778], [111.5242, 17.0786], [111.5293, 17.0856], [111.5316, 17.0853], [111.5348, 17.0837], [111.5371, 17.0843], [111.5396, 17.0866]]], [[[111.496, 17.1085], [111.4945, 17.1096], [111.4872, 17.1121], [111.4851, 17.1115], [111.4821, 17.1077], [111.4794, 17.1073], [111.4771, 17.1083], [111.4684, 17.1043], [111.4657, 17.1014], [111.4646, 17.0982], [111.4621, 17.0957], [111.4562, 17.094], [111.4518, 17.0919], [111.4497, 17.0887], [111.4467, 17.0712], [111.4482, 17.0674], [111.4505, 17.0658], [111.4575, 17.0653], [111.4941, 17.0988], [111.4958, 17.1012], [111.496, 17.1085]]], [[[111.5358, 17.1174], [111.5337, 17.1197], [111.5263, 17.1203], [111.5205, 17.1159], [111.5183, 17.1169], [111.5154, 17.117], [111.5051, 17.1123], [111.5042, 17.1104], [111.5055, 17.1096], [111.5145, 17.11], [111.5365, 17.1129], [111.5373, 17.1142], [111.5358, 17.1174]]]]}, "properties": {"code": "20333", "name": "Hoàng Sa", "nameEn": "Paracel", "fullName": "Đặc khu Hoàng Sa", "fullNameEn": "Paracel Special administrative region", "codeName": "hoang_sa", "postalCode": "50906", "postalCodePrefix": "", "gisServerId": "diaphanhanhchinhcapxa_2025.3293", "areaKm2": 350, "provinceCode": "48", "provinceName": "Đà Nẵng"}, "id": "20333"}, {"type": "Feature", "geometry": {"type": "MultiPolygon", "coordinates": [[[[114.8657, 7.1963], [114.8728, 7.2177], [114.8728, 7.2409], [114.8603, 7.2481], [114.8425, 7.2391], [114.8246, 7.2106], [114.8264, 7.1927], [114.8478, 7.1838], [114.8657, 7.1963]]], [[[113.8433, 7.3877], [113.8514, 7.3958], [113.8469, 7.4187], [113.8432, 7.424], [113.8348, 7.4271], [113.822, 7.424], [113.8114, 7.4165], [113.797, 7.4044], [113.7925, 7.3893], [113.7978, 7.3802], [113.8099, 7.3787], [113.8167, 7.3818], [113.8243, 7.3809], [113.8433, 7.3877]]], [[[109.9424, 7.539], [109.8922, 7.5575], [109.794, 7.5684], [109.6959, 7.5611], [109.6232, 7.5284], [109.5542, 7.4557], [109.4779, 7.3431], [109.4734, 7.3236], [109.5001, 7.316], [109.6012, 7.4666], [109.6641, 7.5104], [109.7232, 7.5314], [109.7918, 7.5371], [109.8643, 7.5257], [109.9272, 7.5104], [109.9501, 7.5085], [109.9615, 7.5257], [109.9424, 7.539]]], [[[114.9995, 7.48], [115.0138, 7.4872], [115.0245, 7.5032], [115.0245, 7.5229], [115.0067, 7.5336], [114.9835, 7.5318], [114.9549, 7.5211], [114.9531, 7.5015], [114.962, 7.4818], [114.9835, 7.4765], [114.9995, 7.48]]], [[[111.585, 7.5258], [111.6107, 7.5686], [111.6221, 7.5972], [111.6079, 7.62], [111.5736, 7.6114], [111.5451, 7.5715], [111.5394, 7.5287], [111.5508, 7.5116], [111.585, 7.5258]]], [[[114.7104, 7.58], [114.7283, 7.6014], [114.7247, 7.6175], [114.7122, 7.6228], [114.689, 7.621], [114.6747, 7.6103], [114.6658, 7.5853], [114.6676, 7.5657], [114.6836, 7.5604], [114.7104, 7.58]]], [[[113.9266, 7.6433], [113.9188, 7.6433], [113.9123, 7.6404], [113.907, 7.6345], [113.903, 7.6261], [113.9059, 7.6197], [113.9088, 7.6161], [113.9188, 7.6104], [113.9259, 7.6076], [113.938, 7.6112], [113.9473, 7.6162], [113.953, 7.6269], [113.9509, 7.6361], [113.9445, 7.6404], [113.938, 7.6397], [113.9316, 7.6397], [113.9266, 7.6433]]], [[[113.809, 7.6045], [113.8228, 7.6098], [113.8355, 7.6161], [113.8408, 7.6256], [113.8387, 7.6426], [113.8281, 7.6521], [113.8132, 7.6521], [113.791, 7.6489], [113.7762, 7.6405], [113.7698, 7.6288], [113.7698, 7.6172], [113.7794, 7.6066], [113.7924, 7.6041], [113.809, 7.6045]]], [[[111.6991, 7.6428], [111.7248, 7.6628], [111.7448, 7.6998], [111.7391, 7.7255], [111.7134, 7.7312], [111.682, 7.7112], [111.6678, 7.6799], [111.6706, 7.6428], [111.6991, 7.6428]]], [[[110.508, 7.7953], [110.5264, 7.8161], [110.5195, 7.8322], [110.501, 7.8368], [110.4872, 7.8253], [110.4664, 7.8045], [110.4664, 7.7838], [110.4895, 7.7792], [110.508, 7.7953]]], [[[112.9288, 7.8987], [112.923, 7.902], [112.9139, 7.8995], [112.9081, 7.8896], [112.9032, 7.8822], [112.9032, 7.8747], [112.9056, 7.8598], [112.9123, 7.8524], [112.9205, 7.8496], [112.9288, 7.8507], [112.9379, 7.8582], [112.9445, 7.8764], [112.9553, 7.8772], [112.9611, 7.8855], [112.9569, 7.8971], [112.9478, 7.8995], [112.9354, 7.8962], [112.9288, 7.8987]]], [[[110.0586, 7.8494], [110.079, 7.8718], [110.0911, 7.9165], [110.0873, 7.9451], [110.0644, 7.9584], [110.045, 7.9568], [110.0141, 7.937], [109.9558, 7.8955], [109.9478, 7.892], [109.9359, 7.8775], [109.9291, 7.8326], [109.9539, 7.8173], [109.9886, 7.8132], [110.0586, 7.8494]]], [[[111.7448, 7.9052], [111.7334, 7.9366], [111.6906, 7.9451], [111.6506, 7.948], [111.6193, 7.9109], [111.5993, 7.871], [111.5708, 7.8453], [111.5508, 7.8196], [111.548, 7.794], [111.5679, 7.7654], [111.5964, 7.7597], [111.6278, 7.8253], [111.6421, 7.8596], [111.6877, 7.8881], [111.7277, 7.8795], [111.7448, 7.9052]]], [[[110.6478, 7.987], [110.6402, 8.0442], [110.6192, 8.0442], [110.6078, 8.0156], [110.6154, 7.9851], [110.6478, 7.987]]], [[[113.9615, 7.9454], [113.9689, 7.9496], [113.9731, 7.9623], [113.9742, 7.975], [113.953, 8.011], [113.9414, 8.0237], [113.9234, 8.0259], [113.9075, 8.0216], [113.9001, 8.0142], [113.8969, 8.0036], [113.9011, 7.9793], [113.9138, 7.9613], [113.9371, 7.9486], [113.9498, 7.9443], [113.9615, 7.9454]]], [[[114.8957, 7.9498], [114.9031, 7.9593], [114.9136, 7.9614], [114.9178, 7.9741], [114.9157, 7.9972], [114.9073, 8.0109], [114.8968, 8.0172], [114.8862, 8.0193], [114.8725, 8.0109], [114.8683, 7.9888], [114.8725, 7.972], [114.8841, 7.9519], [114.8873, 7.9488], [114.8957, 7.9498]]], [[[112.0105, 8.0524], [112.0226, 8.0659], [112.024, 8.0753], [112.0213, 8.0928], [112.0105, 8.1022], [111.981, 8.1103], [111.9487, 8.1103], [111.9312, 8.0968], [111.9285, 8.082], [111.9299, 8.0632], [111.9581, 8.0524], [111.9931, 8.0484], [112.0105, 8.0524]]], [[[113.3003, 8.1364], [113.2946, 8.1355], [113.2893, 8.1336], [113.2879, 8.1179], [113.2841, 8.1136], [113.2832, 8.105], [113.287, 8.1012], [113.2879, 8.095], [113.2861, 8.088], [113.2884, 8.0831], [113.2941, 8.0803], [113.3022, 8.0784], [113.3065, 8.0798], [113.3103, 8.0817], [113.3108, 8.0936], [113.3141, 8.1002], [113.3208, 8.1021], [113.3241, 8.1069], [113.3246, 8.1112], [113.3222, 8.1164], [113.326, 8.1207], [113.3279, 8.1283], [113.325, 8.1321], [113.3188, 8.1331], [113.3031, 8.1326], [113.3003, 8.1364]]], [[[110.5561, 8.0931], [110.5983, 8.149], [110.6021, 8.1796], [110.5797, 8.1851], [110.4762, 8.1471], [110.4535, 8.14], [110.4704, 8.0743], [110.4955, 8.0675], [110.5561, 8.0931]]], [[[114.1272, 8.0783], [114.144, 8.1022], [114.1392, 8.1262], [114.1177, 8.1286], [114.1033, 8.1142], [114.0937, 8.0998], [114.1033, 8.0783], [114.1272, 8.0783]]], [[[114.8236, 8.119], [114.8212, 8.1453], [114.8093, 8.1668], [114.7853, 8.162], [114.7734, 8.1453], [114.7806, 8.1142], [114.8093, 8.107], [114.8236, 8.119]]], [[[114.6198, 8.1731], [114.6177, 8.1847], [114.6082, 8.19], [114.5913, 8.1815], [114.5787, 8.1742], [114.5713, 8.1636], [114.5629, 8.1636], [114.5587, 8.1668], [114.5429, 8.1636], [114.5408, 8.1531], [114.5397, 8.1426], [114.5236, 8.1396], [114.5107, 8.1339], [114.5107, 8.1239], [114.5193, 8.1125], [114.5393, 8.1111], [114.5685, 8.1201], [114.5864, 8.1239], [114.6135, 8.1382], [114.6206, 8.1553], [114.6198, 8.1731]]], [[[114.747, 8.1932], [114.7351, 8.2123], [114.704, 8.2243], [114.68, 8.2243], [114.6681, 8.2123], [114.6872, 8.1884], [114.7183, 8.186], [114.747, 8.1932]]], [[[113.3836, 8.2254], [113.3893, 8.2406], [113.3907, 8.2882], [113.3888, 8.3006], [113.3826, 8.3115], [113.3745, 8.3153], [113.3683, 8.3153], [113.3612, 8.3125], [113.3541, 8.2982], [113.3522, 8.2844], [113.3545, 8.2792], [113.3564, 8.2687], [113.356, 8.2592], [113.3531, 8.2501], [113.346, 8.2468], [113.3365, 8.2463], [113.3322, 8.2416], [113.3322, 8.2316], [113.3284, 8.2249], [113.3222, 8.2202], [113.3208, 8.2116], [113.315, 8.203], [113.3017, 8.1883], [113.2903, 8.1712], [113.2713, 8.1369], [113.2722, 8.1312], [113.276, 8.1302], [113.2793, 8.1302], [113.2822, 8.1326], [113.287, 8.1416], [113.3036, 8.164], [113.3146, 8.1802], [113.3227, 8.183], [113.326, 8.1797], [113.3284, 8.1716], [113.3265, 8.1645], [113.3222, 8.1583], [113.3193, 8.1493], [113.3203, 8.145], [113.3241, 8.1426], [113.3331, 8.1521], [113.3555, 8.1773], [113.3836, 8.2254]]], [[[115.2795, 8.3226], [115.2932, 8.3345], [115.2949, 8.3551], [115.2675, 8.3739], [115.2401, 8.3842], [115.2316, 8.4013], [115.2127, 8.4047], [115.199, 8.3979], [115.1871, 8.3842], [115.1871, 8.3705], [115.1934, 8.3495], [115.2213, 8.3345], [115.2538, 8.3226], [115.2795, 8.3226]]], [[[111.5044, 8.5302], [111.5127, 8.5468], [111.5127, 8.5575], [111.5032, 8.5599], [111.4902, 8.5575], [111.4759, 8.5528], [111.4688, 8.5456], [111.4652, 8.5314], [111.4664, 8.5243], [111.4771, 8.5219], [111.5044, 8.5302]]], [[[115.2982, 8.4961], [115.3025, 8.5176], [115.2939, 8.5326], [115.2724, 8.5369], [115.2574, 8.524], [115.2574, 8.4982], [115.2746, 8.4789], [115.2982, 8.4961]]], [[[115.5605, 8.4638], [115.5691, 8.4875], [115.567, 8.5133], [115.5562, 8.5326], [115.5261, 8.5326], [115.5132, 8.5176], [115.5089, 8.4939], [115.5218, 8.466], [115.5369, 8.4617], [115.5605, 8.4638]]], [[[111.9256, 8.6366], [111.9297, 8.6375], [111.9336, 8.6401], [111.9357, 8.6433], [111.9363, 8.6476], [111.935, 8.6511], [111.9324, 8.654], [111.9287, 8.6559], [111.9238, 8.6564], [111.9191, 8.6552], [111.9159, 8.6527], [111.914, 8.6495], [111.9135, 8.6458], [111.9146, 8.6422], [111.9171, 8.6393], [111.9214, 8.6371], [111.9256, 8.6366]]], [[[111.6811, 8.6322], [111.7001, 8.6417], [111.7167, 8.6548], [111.7167, 8.669], [111.7084, 8.6809], [111.6883, 8.6832], [111.6657, 8.6797], [111.6539, 8.6678], [111.6456, 8.656], [111.6467, 8.6429], [111.655, 8.6346], [111.6632, 8.6308], [111.6811, 8.6322]]], [[[114.2482, 8.7549], [114.2349, 8.7834], [114.2197, 8.7977], [114.2063, 8.7958], [114.1997, 8.7939], [114.193, 8.7853], [114.193, 8.7711], [114.2025, 8.7368], [114.2149, 8.714], [114.2263, 8.714], [114.2273, 8.7216], [114.2244, 8.732], [114.2244, 8.7416], [114.232, 8.7425], [114.2406, 8.734], [114.2463, 8.7206], [114.2549, 8.7225], [114.2549, 8.7311], [114.2482, 8.7549]]], [[[112.6333, 8.8165], [112.6532, 8.826], [112.6485, 8.8365], [112.6342, 8.8441], [112.6171, 8.8546], [112.6066, 8.8631], [112.5952, 8.8641], [112.5723, 8.8593], [112.5533, 8.8574], [112.5428, 8.8555], [112.539, 8.8422], [112.5495, 8.8317], [112.5645, 8.8201], [112.5771, 8.8156], [112.599, 8.8146], [112.6333, 8.8165]]], [[[112.2535, 8.8403], [112.2659, 8.8441], [112.2668, 8.8536], [112.2602, 8.8593], [112.2383, 8.8631], [112.2278, 8.8708], [112.2135, 8.8736], [112.2059, 8.8708], [112.2069, 8.8641], [112.2107, 8.8565], [112.2135, 8.8422], [112.2193, 8.8335], [112.2316, 8.8374], [112.2421, 8.8336], [112.2535, 8.8403]]], [[[114.0046, 8.7815], [114.0093, 8.7901], [114.0093, 8.7977], [114.0008, 8.8053], [113.9912, 8.8111], [113.9817, 8.8196], [113.9693, 8.8434], [113.9598, 8.8453], [113.9532, 8.8415], [113.9513, 8.8301], [113.957, 8.8149], [113.9741, 8.7901], [113.9912, 8.7815], [114.0046, 8.7815]]], [[[112.8705, 8.8558], [112.8753, 8.8653], [112.8696, 8.8776], [112.8515, 8.8862], [112.8353, 8.8872], [112.8286, 8.8853], [112.8229, 8.8824], [112.8229, 8.8729], [112.8267, 8.8662], [112.841, 8.8567], [112.8591, 8.85], [112.8705, 8.8558]]], [[[112.2889, 8.8669], [112.2966, 8.8735], [112.2977, 8.8877], [112.2933, 8.9019], [112.2834, 8.9063], [112.2638, 8.9008], [112.2484, 8.8899], [112.2528, 8.879], [112.2616, 8.8724], [112.2791, 8.8626], [112.2889, 8.8669]]], [[[114.0483, 8.7796], [114.0521, 8.7996], [114.0493, 8.8291], [114.0426, 8.8425], [114.0131, 8.8663], [113.9969, 8.8748], [113.9846, 8.8739], [113.9789, 8.8672], [113.9789, 8.8605], [113.9855, 8.8501], [113.9912, 8.8463], [114.0036, 8.8367], [114.01, 8.8234], [114.0198, 8.8111], [114.0217, 8.7987], [114.0217, 8.7873], [114.0312, 8.7777], [114.0483, 8.7796]]], [[[113.9351, 8.8406], [113.937, 8.8491], [113.9379, 8.8558], [113.9341, 8.8624], [113.9351, 8.872], [113.9332, 8.8834], [113.9227, 8.891], [113.9132, 8.892], [113.9018, 8.8843], [113.897, 8.8701], [113.9018, 8.8567], [113.9227, 8.8387], [113.9351, 8.8406]]], [[[112.3829, 8.9174], [112.3896, 8.9317], [112.3886, 8.9421], [112.3791, 8.9479], [112.3668, 8.9479], [112.3525, 8.9469], [112.342, 8.9412], [112.3442, 8.9292], [112.3534, 8.9136], [112.3668, 8.9107], [112.3829, 8.9174]]], [[[114.6394, 8.8643], [114.6556, 8.8643], [114.6727, 8.872], [114.687, 8.891], [114.6975, 8.911], [114.6946, 8.93], [114.6803, 8.9348], [114.6613, 8.931], [114.6499, 8.9205], [114.6442, 8.9081], [114.6442, 8.8929], [114.6365, 8.8872], [114.6289, 8.8843], [114.6261, 8.87], [114.6299, 8.8624], [114.6394, 8.8643]]], [[[113.6752, 8.9814], [113.6695, 8.989], [113.6591, 8.99], [113.6467, 8.9881], [113.6448, 8.9814], [113.6476, 8.9757], [113.6591, 8.9744], [113.6714, 8.9719], [113.6752, 8.9814]]], [[[113.719, 8.9757], [113.7324, 8.9767], [113.7362, 8.9833], [113.7343, 8.9938], [113.7257, 8.9957], [113.7133, 8.989], [113.7057, 8.9814], [113.6976, 8.9757], [113.7028, 8.97], [113.7143, 8.9691], [113.719, 8.9757]]], [[[116.3081, 8.8662], [116.3106, 8.8764], [116.317, 8.8904], [116.3259, 8.8942], [116.3347, 8.9056], [116.3335, 8.9208], [116.3182, 8.931], [116.3068, 8.931], [116.2852, 8.9018], [116.2763, 8.8853], [116.2776, 8.8713], [116.2954, 8.8586], [116.3081, 8.8662]]], [[[113.7305, 9.0233], [113.7257, 9.03], [113.7171, 9.0319], [113.7105, 9.0404], [113.7, 9.0404], [113.6933, 9.0338], [113.6943, 9.0251], [113.6981, 9.0166], [113.7171, 9.01], [113.7295, 9.009], [113.7305, 9.0233]]], [[[113.6677, 9.0048], [113.6789, 9.0194], [113.68, 9.0317], [113.6721, 9.0396], [113.6609, 9.0418], [113.6542, 9.0384], [113.6475, 9.0284], [113.6352, 9.0216], [113.6352, 9.0116], [113.6441, 9.0008], [113.6565, 9.0003], [113.6677, 9.0048]]], [[[113.7069, 9.1863], [113.7024, 9.2008], [113.7035, 9.2098], [113.708, 9.221], [113.6912, 9.2367], [113.6755, 9.2389], [113.6654, 9.2378], [113.6598, 9.2244], [113.6598, 9.212], [113.6531, 9.2042], [113.6542, 9.1941], [113.6688, 9.1852], [113.6828, 9.1849], [113.699, 9.1818], [113.7069, 9.1863]]], [[[116.4985, 9.1646], [116.5011, 9.1811], [116.496, 9.1989], [116.4782, 9.2001], [116.4592, 9.1913], [116.4503, 9.1811], [116.4516, 9.1684], [116.4706, 9.1494], [116.4909, 9.1481], [116.4985, 9.1646]]], [[[114.1892, 9.3464], [114.1992, 9.3579], [114.2021, 9.3736], [114.1978, 9.3893], [114.1821, 9.395], [114.1693, 9.3893], [114.165, 9.3778], [114.1678, 9.3593], [114.1778, 9.3464], [114.1892, 9.3464]]], [[[115.9672, 9.2872], [115.9789, 9.3091], [115.9686, 9.334], [115.954, 9.35], [115.9335, 9.3471], [115.9175, 9.3413], [115.9157, 9.3264], [115.9218, 9.3076], [115.9292, 9.293], [115.9482, 9.2813], [115.9672, 9.2872]]], [[[115.4688, 9.3247], [115.4821, 9.3457], [115.4783, 9.38], [115.465, 9.4086], [115.4459, 9.4162], [115.4326, 9.4162], [115.425, 9.3971], [115.425, 9.3609], [115.4345, 9.3419], [115.4478, 9.3247], [115.4688, 9.3247]]], [[[112.5611, 9.5202], [112.5681, 9.5237], [112.5728, 9.5301], [112.5751, 9.5393], [112.5745, 9.555], [112.5635, 9.5643], [112.5501, 9.5661], [112.5327, 9.5626], [112.5193, 9.5533], [112.5141, 9.5434], [112.5141, 9.5376], [112.517, 9.5289], [112.5245, 9.5231], [112.5402, 9.5202], [112.5611, 9.5202]]], [[[112.8721, 9.5356], [112.8771, 9.5405], [112.8849, 9.5434], [112.8888, 9.5493], [112.8913, 9.5562], [112.8883, 9.5616], [112.882, 9.5616], [112.8746, 9.5591], [112.8726, 9.5532], [112.8687, 9.5478], [112.8648, 9.5468], [112.8579, 9.5434], [112.8555, 9.5385], [112.8572, 9.5315], [112.8653, 9.5311], [112.8721, 9.5356]]], [[[116.967, 9.4122], [116.9861, 9.4376], [116.9937, 9.4553], [116.9835, 9.4718], [116.9632, 9.4756], [116.9442, 9.4718], [116.9289, 9.468], [116.8997, 9.4579], [116.8997, 9.4426], [116.9168, 9.436], [116.9201, 9.4147], [116.9302, 9.4084], [116.967, 9.4122]]], [[[112.9075, 9.5729], [112.9104, 9.5768], [112.9114, 9.5866], [112.906, 9.5925], [112.9001, 9.5945], [112.8942, 9.5905], [112.8937, 9.5856], [112.8947, 9.5802], [112.8977, 9.5738], [112.9026, 9.5709], [112.9075, 9.5729]]], [[[112.9657, 9.6393], [112.9664, 9.6493], [112.965, 9.66], [112.9607, 9.6672], [112.955, 9.6672], [112.9479, 9.6607], [112.9479, 9.6586], [112.9443, 9.655], [112.9365, 9.655], [112.9315, 9.6543], [112.9279, 9.65], [112.9279, 9.64], [112.9265, 9.6358], [112.9101, 9.6343], [112.9072, 9.6308], [112.9022, 9.6222], [112.9015, 9.6151], [112.9048, 9.6086], [112.9179, 9.6101], [112.9315, 9.6143], [112.9372, 9.6258], [112.9386, 9.6329], [112.9465, 9.6372], [112.955, 9.635], [112.9657, 9.6393]]], [[[116.1952, 9.5722], [116.1982, 9.5898], [116.1894, 9.5986], [116.1718, 9.6029], [116.1587, 9.5956], [116.1514, 9.5825], [116.1601, 9.5649], [116.1821, 9.562], [116.1952, 9.5722]]], [[[113.0186, 9.6907], [113.0121, 9.6922], [113.0014, 9.6893], [112.9986, 9.685], [112.99, 9.6843], [112.9864, 9.6836], [112.9779, 9.68], [112.9814, 9.6672], [112.9857, 9.66], [113.0007, 9.6579], [113.0093, 9.6586], [113.0207, 9.655], [113.0328, 9.6486], [113.0492, 9.6507], [113.0535, 9.6593], [113.0557, 9.6714], [113.0457, 9.6772], [113.0357, 9.6886], [113.0314, 9.685], [113.0271, 9.6843], [113.0186, 9.6907]]], [[[114.3028, 9.702], [114.3111, 9.7139], [114.3111, 9.727], [114.3016, 9.733], [114.2873, 9.7354], [114.2778, 9.7413], [114.2659, 9.7401], [114.2635, 9.7282], [114.2635, 9.7199], [114.2742, 9.7056], [114.2873, 9.6997], [114.3028, 9.702]]], [[[114.7144, 9.7102], [114.7206, 9.7207], [114.7206, 9.7341], [114.7151, 9.7409], [114.7034, 9.7433], [114.6911, 9.7415], [114.6832, 9.7335], [114.6807, 9.7243], [114.685, 9.7139], [114.693, 9.7084], [114.7046, 9.7053], [114.7144, 9.7102]]], [[[114.3621, 9.7551], [114.3657, 9.7706], [114.3615, 9.776], [114.3562, 9.7777], [114.3508, 9.7742], [114.349, 9.7682], [114.349, 9.7587], [114.3538, 9.754], [114.3621, 9.7551]]], [[[114.4039, 9.7826], [114.406, 9.7851], [114.4053, 9.7898], [114.4032, 9.793], [114.3989, 9.7976], [114.395, 9.7987], [114.3918, 9.7969], [114.3896, 9.794], [114.3903, 9.7905], [114.3935, 9.7855], [114.3964, 9.7833], [114.4, 9.7826], [114.4039, 9.7826]]], [[[114.2913, 9.7524], [114.301, 9.7604], [114.3019, 9.7728], [114.2981, 9.789], [114.2905, 9.7966], [114.2905, 9.8071], [114.2848, 9.8166], [114.2743, 9.8213], [114.2629, 9.8185], [114.2572, 9.8118], [114.2572, 9.8023], [114.261, 9.7918], [114.2648, 9.7852], [114.2638, 9.7776], [114.2638, 9.7661], [114.2724, 9.7614], [114.2753, 9.7557], [114.2829, 9.75], [114.2913, 9.7524]]], [[[114.4678, 9.8134], [114.4722, 9.8178], [114.4738, 9.8255], [114.47, 9.8299], [114.4634, 9.8326], [114.4557, 9.8304], [114.454, 9.8255], [114.4557, 9.8161], [114.4623, 9.8123], [114.4678, 9.8134]]], [[[116.5929, 9.7306], [116.5956, 9.7413], [116.5884, 9.7566], [116.5803, 9.7664], [116.5651, 9.7628], [116.5579, 9.7566], [116.5565, 9.745], [116.5705, 9.7368], [116.5776, 9.7288], [116.5866, 9.7252], [116.5929, 9.7306]]], [[[114.4918, 9.8336], [114.4918, 9.8402], [114.4894, 9.8436], [114.4842, 9.8445], [114.4804, 9.8407], [114.4794, 9.8359], [114.4813, 9.8321], [114.487, 9.8302], [114.4918, 9.8336]]], [[[114.2711, 9.8319], [114.2771, 9.8337], [114.2789, 9.8384], [114.2795, 9.8503], [114.2759, 9.8557], [114.267, 9.8545], [114.264, 9.8497], [114.2604, 9.842], [114.2628, 9.8355], [114.267, 9.8319], [114.2711, 9.8319]]], [[[115.8941, 9.6526], [115.9014, 9.6673], [115.9028, 9.6804], [115.9233, 9.7199], [115.9262, 9.7652], [115.9145, 9.793], [115.9043, 9.8076], [115.8751, 9.8032], [115.8575, 9.7974], [115.8561, 9.7842], [115.8561, 9.7652], [115.8385, 9.7418], [115.8341, 9.7126], [115.8429, 9.695], [115.8531, 9.6775], [115.8614, 9.6497], [115.8795, 9.6453], [115.8941, 9.6526]]], [[[114.5137, 9.8428], [114.5166, 9.8454], [114.5192, 9.8504], [114.5184, 9.8559], [114.516, 9.8608], [114.5048, 9.8643], [114.4995, 9.864], [114.4961, 9.8605], [114.4946, 9.8562], [114.4958, 9.8515], [114.503, 9.8428], [114.5088, 9.8423], [114.5137, 9.8428]]], [[[114.2836, 9.8612], [114.2847, 9.864], [114.2843, 9.8679], [114.2833, 9.8704], [114.2783, 9.8715], [114.274, 9.8704], [114.2722, 9.8669], [114.275, 9.8601], [114.2793, 9.8597], [114.2836, 9.8612]]], [[[114.4138, 9.8667], [114.412, 9.8691], [114.4075, 9.8699], [114.4034, 9.8673], [114.3995, 9.8655], [114.3953, 9.8694], [114.3897, 9.87], [114.3849, 9.8673], [114.3834, 9.8625], [114.3897, 9.8592], [114.3965, 9.8586], [114.4102, 9.8595], [114.4144, 9.8616], [114.4138, 9.8667]]], [[[116.4369, 9.7745], [116.4495, 9.7826], [116.4513, 9.8032], [116.4396, 9.813], [116.4253, 9.8166], [116.4118, 9.8121], [116.4047, 9.8041], [116.402, 9.7924], [116.419, 9.7736], [116.4369, 9.7745]]], [[[114.3025, 9.8676], [114.3057, 9.8697], [114.3054, 9.874], [114.3032, 9.8815], [114.2997, 9.8829], [114.2958, 9.8822], [114.2943, 9.8808], [114.2915, 9.874], [114.2922, 9.8701], [114.295, 9.8676], [114.299, 9.8661], [114.3025, 9.8676]]], [[[116.4943, 9.7853], [116.505, 9.7897], [116.5131, 9.7987], [116.5122, 9.8077], [116.4943, 9.8229], [116.4844, 9.8256], [116.4755, 9.8229], [116.471, 9.8148], [116.4782, 9.8068], [116.4817, 9.796], [116.4817, 9.7888], [116.4862, 9.7853], [116.4943, 9.7853]]], [[[114.5453, 9.8732], [114.5453, 9.8773], [114.5395, 9.8851], [114.5363, 9.8874], [114.5331, 9.8874], [114.532, 9.8854], [114.5317, 9.8773], [114.5331, 9.8735], [114.5372, 9.8709], [114.5418, 9.8706], [114.5453, 9.8732]]], [[[114.3927, 9.8765], [114.3938, 9.8792], [114.3953, 9.8857], [114.3933, 9.8934], [114.3897, 9.8985], [114.3831, 9.8985], [114.3781, 9.8934], [114.3778, 9.8878], [114.379, 9.8813], [114.3834, 9.8777], [114.3888, 9.8756], [114.3927, 9.8765]]], [[[114.3421, 9.8801], [114.3433, 9.883], [114.3433, 9.8866], [114.3448, 9.889], [114.3492, 9.8908], [114.3513, 9.8934], [114.3507, 9.8988], [114.348, 9.9027], [114.3418, 9.9053], [114.3382, 9.9056], [114.3361, 9.9027], [114.3385, 9.8914], [114.3373, 9.8887], [114.3344, 9.8872], [114.3332, 9.8845], [114.3341, 9.8824], [114.3385, 9.8798], [114.3421, 9.8801]]], [[[114.6009, 9.8857], [114.6043, 9.8903], [114.6052, 9.8949], [114.6026, 9.899], [114.5968, 9.9007], [114.5928, 9.9007], [114.5893, 9.8972], [114.5878, 9.8923], [114.589, 9.888], [114.591, 9.8854], [114.5956, 9.8836], [114.6009, 9.8857]]], [[[114.4711, 9.8866], [114.4744, 9.8921], [114.4705, 9.8993], [114.4595, 9.9037], [114.4485, 9.9065], [114.443, 9.9032], [114.4419, 9.8971], [114.4446, 9.8888], [114.4535, 9.885], [114.4628, 9.8839], [114.4711, 9.8866]]], [[[114.571, 9.8845], [114.5728, 9.8886], [114.5719, 9.8955], [114.5679, 9.9016], [114.56, 9.9077], [114.5557, 9.9082], [114.5505, 9.9065], [114.5476, 9.9016], [114.5476, 9.8961], [114.5528, 9.8877], [114.5595, 9.8836], [114.5655, 9.8834], [114.571, 9.8845]]], [[[114.4964, 9.8984], [114.4996, 9.9036], [114.5004, 9.9126], [114.499, 9.9192], [114.4967, 9.9224], [114.4923, 9.9219], [114.4871, 9.9201], [114.4839, 9.9158], [114.4825, 9.9085], [114.4831, 9.9004], [114.4888, 9.8955], [114.4929, 9.8944], [114.4964, 9.8984]]], [[[114.525, 9.9164], [114.5268, 9.9213], [114.5273, 9.9294], [114.5247, 9.9346], [114.5207, 9.9357], [114.5166, 9.9352], [114.5137, 9.9323], [114.5114, 9.9253], [114.5129, 9.9181], [114.5152, 9.9152], [114.5184, 9.9146], [114.5224, 9.9143], [114.525, 9.9164]]], [[[114.5768, 9.9485], [114.5809, 9.9528], [114.5809, 9.9569], [114.5789, 9.9609], [114.5705, 9.9638], [114.5644, 9.9629], [114.5574, 9.9586], [114.5548, 9.9531], [114.5574, 9.9476], [114.5609, 9.9456], [114.5684, 9.9453], [114.5768, 9.9485]]], [[[115.5371, 9.8633], [115.5489, 9.8633], [115.5617, 9.8666], [115.5725, 9.8828], [115.5743, 9.9025], [115.5617, 9.9114], [115.5514, 9.9248], [115.5514, 9.9374], [115.5363, 9.9433], [115.5127, 9.9299], [115.5017, 9.9181], [115.5009, 9.9012], [115.5017, 9.886], [115.5089, 9.8675], [115.5236, 9.8599], [115.5371, 9.8633]]], [[[114.5954, 9.9641], [114.5957, 9.9673], [114.5936, 9.9713], [114.5899, 9.9737], [114.5858, 9.9725], [114.5844, 9.969], [114.5867, 9.9644], [114.5916, 9.9624], [114.5954, 9.9641]]], [[[114.6434, 9.9281], [114.6684, 9.9459], [114.672, 9.9733], [114.6636, 9.9923], [114.6529, 9.9983], [114.6386, 9.9995], [114.6172, 9.9959], [114.6149, 9.9792], [114.6232, 9.9673], [114.6196, 9.9543], [114.6193, 9.9364], [114.6303, 9.9281], [114.6434, 9.9281]]], [[[113.8689, 9.9868], [113.874, 10.0002], [113.8807, 10.0473], [113.8832, 10.0801], [113.8891, 10.0944], [113.8857, 10.1096], [113.8841, 10.1239], [113.8731, 10.1281], [113.8613, 10.1264], [113.8538, 10.118], [113.8462, 10.1079], [113.8424, 10.0771], [113.8428, 10.0532], [113.8395, 10.033], [113.8344, 10.0095], [113.8319, 9.991], [113.837, 9.9809], [113.8496, 9.9784], [113.8689, 9.9868]]], [[[114.2712, 10.1382], [114.2789, 10.1523], [114.2803, 10.1635], [114.2768, 10.1741], [114.2642, 10.179], [114.2522, 10.1797], [114.2438, 10.1727], [114.2367, 10.1621], [114.2367, 10.1516], [114.2417, 10.1382], [114.2621, 10.1354], [114.2712, 10.1382]]], [[[116.0871, 10.0693], [116.0973, 10.0868], [116.0973, 10.1102], [116.0871, 10.1292], [116.0783, 10.138], [116.0637, 10.1307], [116.0461, 10.1058], [116.0476, 10.0912], [116.0607, 10.0824], [116.0666, 10.0649], [116.0871, 10.0693]]], [[[114.3331, 10.1586], [114.3408, 10.1706], [114.3429, 10.1875], [114.3345, 10.1952], [114.3148, 10.2001], [114.3085, 10.198], [114.3014, 10.1903], [114.2979, 10.1811], [114.3042, 10.1642], [114.3218, 10.1572], [114.3331, 10.1586]]], [[[117.3873, 10.0663], [117.3897, 10.0758], [117.392, 10.0948], [117.3849, 10.1067], [117.3718, 10.1115], [117.3564, 10.1079], [117.3492, 10.0996], [117.3504, 10.0865], [117.3599, 10.0639], [117.3766, 10.0615], [117.3873, 10.0663]]], [[[114.4386, 10.2142], [114.44, 10.2226], [114.4365, 10.2275], [114.4273, 10.2303], [114.4104, 10.2261], [114.3858, 10.2135], [114.3732, 10.2149], [114.3626, 10.2107], [114.3612, 10.2036], [114.3605, 10.1938], [114.364, 10.1868], [114.3704, 10.1811], [114.39, 10.1825], [114.4041, 10.1867], [114.4168, 10.1952], [114.4294, 10.2043], [114.4386, 10.2142]]], [[[113.6291, 10.2235], [113.6351, 10.2311], [113.6419, 10.2386], [113.6427, 10.2462], [113.6374, 10.2531], [113.6283, 10.2614], [113.6162, 10.2644], [113.6078, 10.2591], [113.5995, 10.2485], [113.5987, 10.2424], [113.6154, 10.2265], [113.6215, 10.2227], [113.6291, 10.2235]]], [[[115.3064, 10.1631], [115.3199, 10.1656], [115.3292, 10.1715], [115.3368, 10.1808], [115.3402, 10.1926], [115.3368, 10.2044], [115.3258, 10.2136], [115.3107, 10.2246], [115.2989, 10.2238], [115.2828, 10.2145], [115.2769, 10.2018], [115.2744, 10.1934], [115.2803, 10.185], [115.2845, 10.169], [115.2946, 10.1622], [115.3064, 10.1631]]], [[[115.3814, 10.2271], [115.389, 10.2347], [115.3907, 10.2448], [115.3882, 10.2583], [115.3747, 10.2651], [115.3587, 10.2617], [115.3486, 10.2566], [115.3486, 10.2457], [115.357, 10.2322], [115.3705, 10.2271], [115.3814, 10.2271]]], [[[114.5666, 10.2395], [114.5799, 10.2444], [114.5912, 10.2507], [114.5989, 10.2571], [114.6052, 10.2641], [114.6165, 10.2676], [114.6263, 10.2718], [114.6263, 10.2803], [114.6193, 10.2894], [114.6116, 10.2908], [114.6017, 10.288], [114.5919, 10.2803], [114.5764, 10.2739], [114.5525, 10.2669], [114.5426, 10.2585], [114.5412, 10.2514], [114.5448, 10.2423], [114.5539, 10.2374], [114.5666, 10.2395]]], [[[114.261, 10.2241], [114.2711, 10.2342], [114.277, 10.2443], [114.282, 10.2544], [114.2921, 10.2628], [114.3157, 10.2729], [114.3233, 10.2872], [114.3241, 10.2931], [114.3165, 10.299], [114.3064, 10.3007], [114.2913, 10.2973], [114.2644, 10.278], [114.2417, 10.2553], [114.2341, 10.241], [114.2356, 10.2239], [114.2476, 10.2199], [114.261, 10.2241]]], [[[114.718, 10.3073], [114.7233, 10.3169], [114.7283, 10.3292], [114.7303, 10.3372], [114.7356, 10.3421], [114.7362, 10.3484], [114.7362, 10.3551], [114.7349, 10.3597], [114.7299, 10.3627], [114.7117, 10.3663], [114.7034, 10.3663], [114.6948, 10.363], [114.6918, 10.359], [114.6898, 10.3527], [114.6865, 10.3471], [114.6812, 10.3425], [114.6779, 10.3352], [114.6779, 10.3256], [114.6796, 10.313], [114.6822, 10.306], [114.6862, 10.3043], [114.6895, 10.302], [114.6895, 10.2974], [114.6935, 10.2954], [114.6961, 10.2964], [114.6984, 10.3], [114.7024, 10.3047], [114.7054, 10.3047], [114.7094, 10.3037], [114.715, 10.3037], [114.718, 10.3073]]], [[[114.37, 10.3746], [114.3756, 10.3819], [114.3769, 10.3872], [114.3739, 10.3895], [114.3696, 10.3905], [114.3647, 10.3892], [114.3577, 10.3839], [114.3564, 10.3803], [114.3574, 10.377], [114.3617, 10.3756], [114.3653, 10.3736], [114.37, 10.3746]]], [[[114.4843, 10.376], [114.487, 10.3773], [114.4893, 10.3816], [114.4896, 10.3856], [114.4883, 10.3889], [114.4843, 10.3915], [114.4816, 10.3915], [114.478, 10.3895], [114.4757, 10.3849], [114.476, 10.3796], [114.4777, 10.3766], [114.4807, 10.3756], [114.4843, 10.376]]], [[[114.4207, 10.3885], [114.4227, 10.3925], [114.4213, 10.3948], [114.4164, 10.3968], [114.4117, 10.3948], [114.4104, 10.3902], [114.4127, 10.3879], [114.4174, 10.3869], [114.4207, 10.3885]]], [[[114.5834, 10.4084], [114.5884, 10.4104], [114.5917, 10.4127], [114.5923, 10.4164], [114.5917, 10.42], [114.5884, 10.421], [114.5814, 10.4217], [114.5754, 10.4197], [114.5711, 10.4151], [114.5718, 10.4104], [114.5771, 10.4084], [114.5834, 10.4084]]], [[[117.2874, 10.3078], [117.3004, 10.3185], [117.304, 10.3363], [117.2981, 10.3554], [117.2874, 10.3637], [117.2719, 10.3661], [117.2624, 10.3566], [117.2576, 10.3399], [117.26, 10.3197], [117.2695, 10.3078], [117.2874, 10.3078]]], [[[116.523, 10.3681], [116.532, 10.3931], [116.5457, 10.4158], [116.5434, 10.4294], [116.5298, 10.4317], [116.5116, 10.4249], [116.4934, 10.3999], [116.4685, 10.3749], [116.4571, 10.3522], [116.4617, 10.3273], [116.4776, 10.3091], [116.5116, 10.3045], [116.582, 10.3114], [116.641, 10.3341], [116.6501, 10.3477], [116.6433, 10.3636], [116.6206, 10.3636], [116.5616, 10.3568], [116.5298, 10.3545], [116.523, 10.3681]]], [[[115.7225, 10.4585], [115.7214, 10.471], [115.719, 10.4776], [115.7118, 10.4806], [115.7047, 10.4788], [115.7011, 10.4704], [115.7011, 10.4603], [115.7047, 10.4538], [115.7106, 10.4496], [115.7208, 10.4484], [115.7225, 10.4585]]], [[[115.766, 10.4496], [115.7761, 10.455], [115.7809, 10.4639], [115.7791, 10.4734], [115.7755, 10.477], [115.7612, 10.48], [115.7469, 10.4812], [115.741, 10.48], [115.7386, 10.4704], [115.744, 10.455], [115.7493, 10.449], [115.7576, 10.4466], [115.766, 10.4496]]], [[[116.8637, 10.474], [116.8729, 10.4797], [116.8751, 10.4904], [116.8751, 10.4968], [116.8694, 10.4989], [116.8565, 10.4989], [116.8494, 10.4975], [116.8451, 10.4911], [116.838, 10.4847], [116.838, 10.4782], [116.8451, 10.4725], [116.8558, 10.4718], [116.8637, 10.474]]], [[[115.7202, 10.4954], [115.7273, 10.5014], [115.7273, 10.5115], [115.7338, 10.5174], [115.738, 10.5222], [115.738, 10.5323], [115.7344, 10.54], [115.7291, 10.5424], [115.7214, 10.543], [115.713, 10.5395], [115.7095, 10.5323], [115.7053, 10.5287], [115.6987, 10.5258], [115.697, 10.5192], [115.697, 10.5133], [115.6916, 10.5091], [115.6892, 10.5055], [115.6904, 10.4984], [115.6984, 10.4949], [115.7059, 10.4942], [115.7202, 10.4954]]], [[[115.7868, 10.5139], [115.7886, 10.5216], [115.7868, 10.5311], [115.782, 10.5389], [115.7701, 10.5484], [115.7624, 10.5502], [115.7559, 10.546], [115.7529, 10.5406], [115.7559, 10.5299], [115.7719, 10.5139], [115.7791, 10.5109], [115.7868, 10.5139]]], [[[116.7059, 10.5175], [116.6981, 10.5204], [116.6852, 10.5189], [116.6709, 10.5182], [116.6595, 10.5211], [116.6502, 10.5218], [116.646, 10.5175], [116.6417, 10.5089], [116.6431, 10.4997], [116.6488, 10.4968], [116.6581, 10.4947], [116.6681, 10.4954], [116.6802, 10.4932], [116.7016, 10.494], [116.7095, 10.4968], [116.7116, 10.5047], [116.7102, 10.5111], [116.7059, 10.5175]]], [[[117.2148, 10.5909], [117.2136, 10.6017], [117.1934, 10.6207], [117.185, 10.6254], [117.1779, 10.6219], [117.1732, 10.6112], [117.1732, 10.5933], [117.1958, 10.5874], [117.2148, 10.5909]]], [[[115.8446, 10.6415], [115.8503, 10.6437], [115.8503, 10.6551], [115.8539, 10.6594], [115.8589, 10.6687], [115.8539, 10.6765], [115.8463, 10.6788], [115.8368, 10.6787], [115.8325, 10.6751], [115.8325, 10.6701], [115.8296, 10.6637], [115.8254, 10.658], [115.8225, 10.6515], [115.8261, 10.6437], [115.8361, 10.6401], [115.8446, 10.6415]]], [[[114.492, 10.7034], [114.4948, 10.7084], [114.4969, 10.719], [114.4884, 10.7233], [114.4834, 10.7275], [114.4827, 10.7311], [114.4742, 10.7332], [114.4693, 10.7296], [114.4686, 10.7226], [114.4636, 10.7226], [114.4558, 10.7211], [114.4544, 10.7133], [114.4636, 10.697], [114.4715, 10.6994], [114.4799, 10.6977], [114.492, 10.7034]]], [[[117.6566, 10.6296], [117.6614, 10.6403], [117.6686, 10.6523], [117.6686, 10.6583], [117.653, 10.6607], [117.6363, 10.6511], [117.6303, 10.6344], [117.6339, 10.626], [117.6447, 10.6224], [117.6566, 10.6296]]], [[[115.8175, 10.7151], [115.8225, 10.7172], [115.8282, 10.7222], [115.8289, 10.7315], [115.8246, 10.74], [115.8139, 10.7479], [115.8047, 10.7493], [115.7989, 10.7465], [115.7961, 10.7372], [115.7989, 10.7251], [115.8111, 10.7151], [115.8175, 10.7151]]], [[[114.3651, 10.6935], [114.3735, 10.6983], [114.3747, 10.7043], [114.3747, 10.7139], [114.3759, 10.7258], [114.3884, 10.7348], [114.4565, 10.7736], [114.4613, 10.779], [114.4619, 10.7856], [114.4571, 10.7945], [114.45, 10.7969], [114.4326, 10.7903], [114.3269, 10.7419], [114.3209, 10.7336], [114.3209, 10.7162], [114.3233, 10.6953], [114.3298, 10.6917], [114.343, 10.6911], [114.3651, 10.6935]]], [[[114.5834, 10.7608], [114.5841, 10.7694], [114.5834, 10.7736], [114.5877, 10.7772], [114.5969, 10.7772], [114.6026, 10.785], [114.6005, 10.7913], [114.5969, 10.7942], [114.587, 10.7956], [114.5763, 10.7991], [114.5693, 10.7984], [114.5657, 10.7942], [114.5622, 10.7878], [114.5565, 10.7864], [114.5551, 10.7786], [114.5572, 10.7731], [114.5629, 10.7665], [114.5714, 10.7623], [114.5792, 10.7594], [114.5834, 10.7608]]], [[[117.2207, 10.7206], [117.2219, 10.7313], [117.2148, 10.7409], [117.1981, 10.748], [117.1874, 10.748], [117.1815, 10.7397], [117.1839, 10.729], [117.1958, 10.7171], [117.21, 10.7123], [117.2207, 10.7206]]], [[[117.3873, 10.6742], [117.417, 10.6778], [117.4218, 10.6897], [117.4194, 10.7123], [117.404, 10.7313], [117.3683, 10.7468], [117.3242, 10.7504], [117.2981, 10.7432], [117.279, 10.7242], [117.2671, 10.6945], [117.279, 10.6861], [117.3433, 10.6742], [117.3873, 10.6742]]], [[[114.8725, 10.8166], [114.8761, 10.8238], [114.8743, 10.8346], [114.8665, 10.8411], [114.8587, 10.8411], [114.8533, 10.8375], [114.8539, 10.8238], [114.8575, 10.8178], [114.8647, 10.8154], [114.8725, 10.8166]]], [[[115.8304, 10.8014], [115.8375, 10.8029], [115.8411, 10.8114], [115.8404, 10.8214], [115.8432, 10.8271], [115.8404, 10.8321], [115.8318, 10.8364], [115.8232, 10.8357], [115.8189, 10.8321], [115.8189, 10.8264], [115.8154, 10.8214], [115.8097, 10.8164], [115.8089, 10.81], [115.8118, 10.8036], [115.8189, 10.8012], [115.8304, 10.8014]]], [[[115.8718, 10.8343], [115.8739, 10.84], [115.8725, 10.8464], [115.8646, 10.8557], [115.8546, 10.86], [115.8468, 10.8585], [115.8439, 10.8521], [115.8453, 10.845], [115.8561, 10.8336], [115.8632, 10.8307], [115.8718, 10.8343]]], [[[114.5982, 10.8591], [114.6024, 10.8937], [114.6012, 10.9039], [114.5952, 10.9129], [114.5844, 10.9134], [114.5677, 10.9111], [114.5563, 10.9039], [114.5438, 10.8925], [114.5181, 10.8806], [114.5043, 10.8668], [114.4721, 10.8417], [114.4721, 10.8358], [114.478, 10.8178], [114.4822, 10.8137], [114.4912, 10.8154], [114.4996, 10.822], [114.5073, 10.831], [114.5121, 10.8411], [114.5187, 10.8489], [114.5294, 10.8543], [114.5432, 10.8549], [114.5551, 10.8495], [114.5689, 10.8376], [114.5784, 10.8376], [114.5868, 10.8435], [114.5928, 10.8507], [114.5982, 10.8591]]], [[[114.9442, 10.8465], [114.9525, 10.8573], [114.9543, 10.8656], [114.9645, 10.8967], [114.9633, 10.9057], [114.9549, 10.9122], [114.9478, 10.9128], [114.9394, 10.9105], [114.9161, 10.8764], [114.9137, 10.8674], [114.9161, 10.8615], [114.9173, 10.8519], [114.9215, 10.8435], [114.9346, 10.8423], [114.9442, 10.8465]]], [[[114.0826, 10.8874], [114.0927, 10.89], [114.1028, 10.891], [114.1084, 10.894], [114.1104, 10.8996], [114.1114, 10.9067], [114.1211, 10.9087], [114.1256, 10.9147], [114.1246, 10.9274], [114.1206, 10.937], [114.1165, 10.9406], [114.0902, 10.9466], [114.0796, 10.9451], [114.071, 10.9416], [114.0598, 10.9304], [114.0507, 10.9173], [114.0543, 10.9097], [114.0629, 10.9072], [114.0684, 10.9001], [114.0689, 10.8935], [114.0735, 10.8874], [114.0826, 10.8874]]], [[[117.7933, 10.7381], [117.8065, 10.7489], [117.8196, 10.762], [117.828, 10.7943], [117.8268, 10.817], [117.8208, 10.829], [117.8029, 10.8302], [117.7921, 10.8218], [117.7646, 10.7907], [117.7599, 10.7716], [117.7635, 10.7381], [117.7802, 10.7357], [117.7933, 10.7381]]], [[[114.2694, 11.0278], [114.2764, 11.032], [114.2777, 11.0376], [114.274, 11.0404], [114.2675, 11.0408], [114.262, 11.038], [114.2601, 11.0357], [114.2583, 11.0311], [114.2629, 11.0264], [114.2694, 11.0278]]], [[[114.1885, 11.0343], [114.1946, 11.0368], [114.2022, 11.0413], [114.2002, 11.0535], [114.1946, 11.0545], [114.1885, 11.0535], [114.1865, 11.0489], [114.1835, 11.0459], [114.1789, 11.0449], [114.1759, 11.0429], [114.1744, 11.0378], [114.1771, 11.0326], [114.1885, 11.0343]]], [[[114.2417, 11.0742], [114.2356, 11.0773], [114.229, 11.0753], [114.2255, 11.0717], [114.2214, 11.0747], [114.2159, 11.0732], [114.2128, 11.0682], [114.2118, 11.0621], [114.215, 11.0565], [114.226, 11.0565], [114.2427, 11.0616], [114.2447, 11.0672], [114.2417, 11.0742]]], [[[114.3307, 11.0424], [114.3586, 11.0586], [114.3601, 11.0641], [114.3586, 11.0743], [114.3469, 11.0894], [114.3398, 11.094], [114.3322, 11.0935], [114.314, 11.0793], [114.2983, 11.0626], [114.2953, 11.0525], [114.2994, 11.0434], [114.3049, 11.0409], [114.313, 11.0383], [114.3307, 11.0424]]], [[[115.044, 11.0606], [115.0483, 11.072], [115.0476, 11.0813], [115.0411, 11.0885], [115.0276, 11.0899], [115.0197, 11.0856], [115.0169, 11.0692], [115.0233, 11.0606], [115.034, 11.0578], [115.044, 11.0606]]], [[[114.7427, 11.0249], [114.7599, 11.0421], [114.7706, 11.0471], [114.7856, 11.067], [114.7956, 11.077], [114.8049, 11.0935], [114.807, 11.1013], [114.807, 11.107], [114.7999, 11.1099], [114.792, 11.1113], [114.7777, 11.1177], [114.7692, 11.1156], [114.7128, 11.0449], [114.7021, 11.0156], [114.7035, 11.0035], [114.7078, 11.0014], [114.7163, 11.0007], [114.7427, 11.0249]]], [[[114.8291, 11.1377], [114.8306, 11.1448], [114.827, 11.1527], [114.8234, 11.1556], [114.7934, 11.1556], [114.7863, 11.1541], [114.7849, 11.1491], [114.7906, 11.1413], [114.8091, 11.1377], [114.8227, 11.1363], [114.8291, 11.1377]]], [[[117.6925, 11.0193], [117.6985, 11.0277], [117.7021, 11.0408], [117.6901, 11.054], [117.6698, 11.0575], [117.6602, 11.0492], [117.6578, 11.036], [117.6626, 11.0241], [117.6758, 11.0193], [117.6925, 11.0193]]], [[[117.3004, 11.0313], [117.3076, 11.036], [117.31, 11.0552], [117.304, 11.0755], [117.2932, 11.0803], [117.2789, 11.0779], [117.2693, 11.0647], [117.2693, 11.0528], [117.2741, 11.036], [117.2896, 11.0301], [117.3004, 11.0313]]], [[[117.0721, 11.0516], [117.0721, 11.0695], [117.0661, 11.0815], [117.0529, 11.0922], [117.0386, 11.0922], [117.0302, 11.0815], [117.0207, 11.0671], [117.0254, 11.0552], [117.035, 11.0384], [117.0422, 11.0432], [117.0577, 11.0432], [117.0673, 11.0396], [117.0721, 11.0516]]], [[[117.4761, 11.0707], [117.4869, 11.0803], [117.4893, 11.0922], [117.4785, 11.097], [117.4606, 11.091], [117.4498, 11.0779], [117.451, 11.0659], [117.4642, 11.0647], [117.4761, 11.0707]]], [[[114.5962, 11.3136], [114.6013, 11.3176], [114.6019, 11.3239], [114.5991, 11.3318], [114.5951, 11.3381], [114.5871, 11.3432], [114.5831, 11.3421], [114.5706, 11.3273], [114.5718, 11.3199], [114.5763, 11.3165], [114.582, 11.3085], [114.5962, 11.3136]]], [[[114.4066, 11.4926], [114.4011, 11.4909], [114.3928, 11.4909], [114.3844, 11.4894], [114.3792, 11.4858], [114.3726, 11.4845], [114.3671, 11.4819], [114.3559, 11.4804], [114.3485, 11.4762], [114.334, 11.465], [114.329, 11.4578], [114.3209, 11.4521], [114.3123, 11.4398], [114.3127, 11.4352], [114.3119, 11.4271], [114.3083, 11.4236], [114.3031, 11.4198], [114.2989, 11.4161], [114.2976, 11.4137], [114.2897, 11.4076], [114.2871, 11.4036], [114.2825, 11.394], [114.2818, 11.3887], [114.2825, 11.3817], [114.2847, 11.3747], [114.2919, 11.3668], [114.2994, 11.3644], [114.3094, 11.3619], [114.3171, 11.3635], [114.329, 11.3628], [114.3355, 11.363], [114.3393, 11.3637], [114.3452, 11.3663], [114.357, 11.3679], [114.3678, 11.3707], [114.3755, 11.3736], [114.3825, 11.3753], [114.3862, 11.3725], [114.3961, 11.3826], [114.4013, 11.3894], [114.4035, 11.3962], [114.4079, 11.4021], [114.4103, 11.41], [114.4108, 11.4141], [114.4123, 11.4198], [114.4173, 11.4297], [114.4191, 11.4391], [114.4222, 11.4503], [114.4226, 11.465], [114.4154, 11.4867], [114.4125, 11.4922], [114.4066, 11.4926]]], [[[114.7402, 11.436], [114.743, 11.4673], [114.7385, 11.482], [114.7288, 11.4951], [114.7163, 11.4991], [114.7015, 11.4963], [114.6924, 11.4883], [114.6924, 11.4741], [114.6981, 11.453], [114.7089, 11.4382], [114.722, 11.4325], [114.7356, 11.4308], [114.7402, 11.436]]], [[[114.648, 11.4252], [114.6554, 11.4325], [114.6605, 11.4701], [114.6622, 11.498], [114.6668, 11.5185], [114.6673, 11.527], [114.6611, 11.5321], [114.6497, 11.5344], [114.6275, 11.5276], [114.6201, 11.5241], [114.6201, 11.515], [114.623, 11.4963], [114.6241, 11.4752], [114.6235, 11.4638], [114.6213, 11.449], [114.6207, 11.4394], [114.6224, 11.4297], [114.6275, 11.4263], [114.6338, 11.4234], [114.648, 11.4252]]]]}, "properties": {"code": "22736", "name": "Trường Sa", "nameEn": "Spratly", "fullName": "Đặc khu Trường Sa", "fullNameEn": "Spratly Special administrative region", "codeName": "truong_sa", "postalCode": "57906", "postalCodePrefix": "", "gisServerId": "diaphanhanhchinhcapxa_2025.3317", "areaKm2": 496.3, "provinceCode": "56", "provinceName": "Khánh Hòa"}, "id": "22736"}]}